<?xml version="1.0" encoding="UTF-8"?>
<gpx version="1.1" creator="Urner Abendläufe" xmlns="http://www.topografix.com/GPX/1/1">
  <metadata>
    <name>Grosse Runde – Urner Abendläufe</name>
    <desc>Verlauf nach der Streckenkarte, Höhen aus swissALTI3D (swisstopo). Unterführungen der A2 ebenerdig, Abschnitte entlang des Autobahndamms auf Höhe des Dammfusses.</desc>
  </metadata>
  <trk>
    <name>Grosse Runde</name>
    <trkseg>
      <trkpt lat="46.8883014" lon="8.6033016"><ele>434.9</ele></trkpt>
      <trkpt lat="46.8883254" lon="8.6033577"><ele>435.2</ele></trkpt>
      <trkpt lat="46.8883483" lon="8.6034337"><ele>435.3</ele></trkpt>
      <trkpt lat="46.8883561" lon="8.6035081"><ele>435.5</ele></trkpt>
      <trkpt lat="46.8883698" lon="8.6035839"><ele>435.5</ele></trkpt>
      <trkpt lat="46.8883842" lon="8.6036671"><ele>435.5</ele></trkpt>
      <trkpt lat="46.8883901" lon="8.6037464"><ele>435.4</ele></trkpt>
      <trkpt lat="46.8883852" lon="8.6038180"><ele>435.4</ele></trkpt>
      <trkpt lat="46.8883767" lon="8.6038971"><ele>435.4</ele></trkpt>
      <trkpt lat="46.8883766" lon="8.6039985"><ele>435.3</ele></trkpt>
      <trkpt lat="46.8883891" lon="8.6040941"><ele>435.3</ele></trkpt>
      <trkpt lat="46.8884120" lon="8.6041762"><ele>435.1</ele></trkpt>
      <trkpt lat="46.8884419" lon="8.6042450"><ele>434.2</ele></trkpt>
      <trkpt lat="46.8884769" lon="8.6043063"><ele>434.2</ele></trkpt>
      <trkpt lat="46.8885145" lon="8.6043616"><ele>434.2</ele></trkpt>
      <trkpt lat="46.8885538" lon="8.6044144"><ele>434.2</ele></trkpt>
      <trkpt lat="46.8885931" lon="8.6044659"><ele>434.2</ele></trkpt>
      <trkpt lat="46.8886300" lon="8.6045150"><ele>434.2</ele></trkpt>
      <trkpt lat="46.8886693" lon="8.6045653"><ele>434.3</ele></trkpt>
      <trkpt lat="46.8887112" lon="8.6046182"><ele>434.4</ele></trkpt>
      <trkpt lat="46.8887498" lon="8.6046673"><ele>434.4</ele></trkpt>
      <trkpt lat="46.8887891" lon="8.6047163"><ele>434.4</ele></trkpt>
      <trkpt lat="46.8888335" lon="8.6047731"><ele>434.4</ele></trkpt>
      <trkpt lat="46.8888720" lon="8.6048271"><ele>434.4</ele></trkpt>
      <trkpt lat="46.8889104" lon="8.6048812"><ele>434.4</ele></trkpt>
      <trkpt lat="46.8889497" lon="8.6049363"><ele>434.4</ele></trkpt>
      <trkpt lat="46.8889890" lon="8.6049942"><ele>434.5</ele></trkpt>
      <trkpt lat="46.8890258" lon="8.6050494"><ele>434.5</ele></trkpt>
      <trkpt lat="46.8890633" lon="8.6051108"><ele>434.5</ele></trkpt>
      <trkpt lat="46.8890983" lon="8.6051711"><ele>434.5</ele></trkpt>
      <trkpt lat="46.8891325" lon="8.6052274"><ele>434.5</ele></trkpt>
      <trkpt lat="46.8891652" lon="8.6052764"><ele>434.4</ele></trkpt>
      <trkpt lat="46.8892011" lon="8.6053242"><ele>434.4</ele></trkpt>
      <trkpt lat="46.8892414" lon="8.6053659"><ele>434.4</ele></trkpt>
      <trkpt lat="46.8892877" lon="8.6054003"><ele>434.4</ele></trkpt>
      <trkpt lat="46.8893375" lon="8.6054224"><ele>434.4</ele></trkpt>
      <trkpt lat="46.8893891" lon="8.6054384"><ele>434.4</ele></trkpt>
      <trkpt lat="46.8894424" lon="8.6054568"><ele>434.4</ele></trkpt>
      <trkpt lat="46.8894964" lon="8.6054803"><ele>434.3</ele></trkpt>
      <trkpt lat="46.8895479" lon="8.6055061"><ele>434.3</ele></trkpt>
      <trkpt lat="46.8896027" lon="8.6055371"><ele>434.3</ele></trkpt>
      <trkpt lat="46.8896533" lon="8.6055678"><ele>434.2</ele></trkpt>
      <trkpt lat="46.8897022" lon="8.6055999"><ele>434.2</ele></trkpt>
      <trkpt lat="46.8897535" lon="8.6056356"><ele>434.2</ele></trkpt>
      <trkpt lat="46.8898032" lon="8.6056713"><ele>434.2</ele></trkpt>
      <trkpt lat="46.8898521" lon="8.6057057"><ele>434.2</ele></trkpt>
      <trkpt lat="46.8899009" lon="8.6057403"><ele>434.2</ele></trkpt>
      <trkpt lat="46.8899489" lon="8.6057746"><ele>434.1</ele></trkpt>
      <trkpt lat="46.8899969" lon="8.6058091"><ele>434.1</ele></trkpt>
      <trkpt lat="46.8900449" lon="8.6058448"><ele>434.0</ele></trkpt>
      <trkpt lat="46.8900920" lon="8.6058805"><ele>433.9</ele></trkpt>
      <trkpt lat="46.8901391" lon="8.6059162"><ele>433.9</ele></trkpt>
      <trkpt lat="46.8901863" lon="8.6059518"><ele>433.9</ele></trkpt>
      <trkpt lat="46.8902317" lon="8.6059911"><ele>433.9</ele></trkpt>
      <trkpt lat="46.8902710" lon="8.6060390"><ele>433.8</ele></trkpt>
      <trkpt lat="46.8903028" lon="8.6060954"><ele>433.8</ele></trkpt>
      <trkpt lat="46.8903308" lon="8.6061690"><ele>433.8</ele></trkpt>
      <trkpt lat="46.8903511" lon="8.6062549"><ele>433.8</ele></trkpt>
      <trkpt lat="46.8903587" lon="8.6063416"><ele>433.8</ele></trkpt>
      <trkpt lat="46.8903596" lon="8.6064208"><ele>433.9</ele></trkpt>
      <trkpt lat="46.8903588" lon="8.6064987"><ele>433.9</ele></trkpt>
      <trkpt lat="46.8903597" lon="8.6065792"><ele>434.0</ele></trkpt>
      <trkpt lat="46.8903666" lon="8.6066573"><ele>434.0</ele></trkpt>
      <trkpt lat="46.8903827" lon="8.6067331"><ele>434.0</ele></trkpt>
      <trkpt lat="46.8903998" lon="8.6068002"><ele>434.0</ele></trkpt>
      <trkpt lat="46.8904101" lon="8.6068711"><ele>434.0</ele></trkpt>
      <trkpt lat="46.8904338" lon="8.6069300"><ele>434.0</ele></trkpt>
      <trkpt lat="46.8904862" lon="8.6069969"><ele>434.0</ele></trkpt>
      <trkpt lat="46.8905416" lon="8.6070562"><ele>434.0</ele></trkpt>
      <trkpt lat="46.8905949" lon="8.6071054"><ele>434.0</ele></trkpt>
      <trkpt lat="46.8906372" lon="8.6071482"><ele>434.1</ele></trkpt>
      <trkpt lat="46.8906920" lon="8.6071852"><ele>434.1</ele></trkpt>
      <trkpt lat="46.8907502" lon="8.6072099"><ele>434.1</ele></trkpt>
      <trkpt lat="46.8908044" lon="8.6072248"><ele>434.1</ele></trkpt>
      <trkpt lat="46.8908602" lon="8.6072396"><ele>434.1</ele></trkpt>
      <trkpt lat="46.8909152" lon="8.6072520"><ele>434.1</ele></trkpt>
      <trkpt lat="46.8909668" lon="8.6072629"><ele>434.1</ele></trkpt>
      <trkpt lat="46.8910201" lon="8.6072741"><ele>434.1</ele></trkpt>
      <trkpt lat="46.8910744" lon="8.6072851"><ele>434.0</ele></trkpt>
      <trkpt lat="46.8911268" lon="8.6072949"><ele>434.0</ele></trkpt>
      <trkpt lat="46.8911818" lon="8.6073059"><ele>434.0</ele></trkpt>
      <trkpt lat="46.8912369" lon="8.6073183"><ele>434.0</ele></trkpt>
      <trkpt lat="46.8912919" lon="8.6073306"><ele>434.0</ele></trkpt>
      <trkpt lat="46.8913443" lon="8.6073429"><ele>433.9</ele></trkpt>
      <trkpt lat="46.8913976" lon="8.6073564"><ele>433.9</ele></trkpt>
      <trkpt lat="46.8914509" lon="8.6073724"><ele>433.9</ele></trkpt>
      <trkpt lat="46.8915033" lon="8.6073885"><ele>434.0</ele></trkpt>
      <trkpt lat="46.8915523" lon="8.6074093"><ele>434.1</ele></trkpt>
      <trkpt lat="46.8916038" lon="8.6074388"><ele>434.1</ele></trkpt>
      <trkpt lat="46.8916568" lon="8.6074746"><ele>434.1</ele></trkpt>
      <trkpt lat="46.8917057" lon="8.6075128"><ele>434.1</ele></trkpt>
      <trkpt lat="46.8917518" lon="8.6075535"><ele>434.1</ele></trkpt>
      <trkpt lat="46.8917972" lon="8.6075953"><ele>434.1</ele></trkpt>
      <trkpt lat="46.8918426" lon="8.6076408"><ele>434.1</ele></trkpt>
      <trkpt lat="46.8918870" lon="8.6076875"><ele>434.2</ele></trkpt>
      <trkpt lat="46.8919281" lon="8.6077355"><ele>434.2</ele></trkpt>
      <trkpt lat="46.8919709" lon="8.6077834"><ele>434.2</ele></trkpt>
      <trkpt lat="46.8920129" lon="8.6078277"><ele>434.2</ele></trkpt>
      <trkpt lat="46.8920573" lon="8.6078731"><ele>434.2</ele></trkpt>
      <trkpt lat="46.8921027" lon="8.6079162"><ele>434.2</ele></trkpt>
      <trkpt lat="46.8921489" lon="8.6079580"><ele>434.2</ele></trkpt>
      <trkpt lat="46.8921944" lon="8.6079948"><ele>434.2</ele></trkpt>
      <trkpt lat="46.8922424" lon="8.6080319"><ele>434.2</ele></trkpt>
      <trkpt lat="46.8922937" lon="8.6080688"><ele>434.2</ele></trkpt>
      <trkpt lat="46.8923459" lon="8.6081009"><ele>434.2</ele></trkpt>
      <trkpt lat="46.8923974" lon="8.6081280"><ele>434.2</ele></trkpt>
      <trkpt lat="46.8924515" lon="8.6081477"><ele>434.2</ele></trkpt>
      <trkpt lat="46.8925065" lon="8.6081613"><ele>434.1</ele></trkpt>
      <trkpt lat="46.8925607" lon="8.6081737"><ele>434.1</ele></trkpt>
      <trkpt lat="46.8926148" lon="8.6081945"><ele>434.1</ele></trkpt>
      <trkpt lat="46.8926662" lon="8.6082230"><ele>434.1</ele></trkpt>
      <trkpt lat="46.8927176" lon="8.6082574"><ele>434.1</ele></trkpt>
      <trkpt lat="46.8927681" lon="8.6082932"><ele>434.2</ele></trkpt>
      <trkpt lat="46.8928136" lon="8.6083301"><ele>434.2</ele></trkpt>
      <trkpt lat="46.8928564" lon="8.6083693"><ele>434.2</ele></trkpt>
      <trkpt lat="46.8929035" lon="8.6084125"><ele>434.2</ele></trkpt>
      <trkpt lat="46.8929522" lon="8.6084556"><ele>434.2</ele></trkpt>
      <trkpt lat="46.8929984" lon="8.6084974"><ele>434.2</ele></trkpt>
      <trkpt lat="46.8930404" lon="8.6085354"><ele>434.2</ele></trkpt>
      <trkpt lat="46.8930859" lon="8.6085785"><ele>434.2</ele></trkpt>
      <trkpt lat="46.8931295" lon="8.6086215"><ele>434.2</ele></trkpt>
      <trkpt lat="46.8931748" lon="8.6086658"><ele>434.2</ele></trkpt>
      <trkpt lat="46.8932177" lon="8.6087077"><ele>434.2</ele></trkpt>
      <trkpt lat="46.8932655" lon="8.6087557"><ele>434.2</ele></trkpt>
      <trkpt lat="46.8933083" lon="8.6087986"><ele>434.2</ele></trkpt>
      <trkpt lat="46.8933537" lon="8.6088442"><ele>434.2</ele></trkpt>
      <trkpt lat="46.8933990" lon="8.6088897"><ele>434.2</ele></trkpt>
      <trkpt lat="46.8934435" lon="8.6089353"><ele>434.1</ele></trkpt>
      <trkpt lat="46.8934863" lon="8.6089795"><ele>433.6</ele></trkpt>
      <trkpt lat="46.8935274" lon="8.6090224"><ele>433.6</ele></trkpt>
      <trkpt lat="46.8935711" lon="8.6090691"><ele>433.6</ele></trkpt>
      <trkpt lat="46.8936113" lon="8.6091170"><ele>434.0</ele></trkpt>
      <trkpt lat="46.8936558" lon="8.6091676"><ele>434.0</ele></trkpt>
      <trkpt lat="46.8937028" lon="8.6092156"><ele>434.2</ele></trkpt>
      <trkpt lat="46.8937422" lon="8.6092598"><ele>434.3</ele></trkpt>
      <trkpt lat="46.8937756" lon="8.6093124"><ele>434.4</ele></trkpt>
      <trkpt lat="46.8937970" lon="8.6093735"><ele>434.4</ele></trkpt>
      <trkpt lat="46.8938098" lon="8.6094481"><ele>434.4</ele></trkpt>
      <trkpt lat="46.8938157" lon="8.6095274"><ele>434.4</ele></trkpt>
      <trkpt lat="46.8938184" lon="8.6096054"><ele>434.4</ele></trkpt>
      <trkpt lat="46.8938150" lon="8.6096869"><ele>434.4</ele></trkpt>
      <trkpt lat="46.8938100" lon="8.6097648"><ele>434.4</ele></trkpt>
      <trkpt lat="46.8938041" lon="8.6098414"><ele>434.4</ele></trkpt>
      <trkpt lat="46.8937956" lon="8.6099229"><ele>434.5</ele></trkpt>
      <trkpt lat="46.8937863" lon="8.6100043"><ele>434.5</ele></trkpt>
      <trkpt lat="46.8937761" lon="8.6100833"><ele>434.5</ele></trkpt>
      <trkpt lat="46.8937644" lon="8.6101574"><ele>434.5</ele></trkpt>
      <trkpt lat="46.8937501" lon="8.6102287"><ele>434.5</ele></trkpt>
      <trkpt lat="46.8937341" lon="8.6102965"><ele>434.6</ele></trkpt>
      <trkpt lat="46.8937155" lon="8.6103752"><ele>434.7</ele></trkpt>
      <trkpt lat="46.8936969" lon="8.6104491"><ele>434.8</ele></trkpt>
      <trkpt lat="46.8936784" lon="8.6105168"><ele>434.9</ele></trkpt>
      <trkpt lat="46.8936573" lon="8.6105905"><ele>434.9</ele></trkpt>
      <trkpt lat="46.8936354" lon="8.6106618"><ele>434.9</ele></trkpt>
      <trkpt lat="46.8936126" lon="8.6107294"><ele>434.9</ele></trkpt>
      <trkpt lat="46.8935857" lon="8.6107944"><ele>434.8</ele></trkpt>
      <trkpt lat="46.8935578" lon="8.6108618"><ele>434.7</ele></trkpt>
      <trkpt lat="46.8935263" lon="8.6109307"><ele>434.7</ele></trkpt>
      <trkpt lat="46.8934779" lon="8.6109850"><ele>434.7</ele></trkpt>
      <trkpt lat="46.8934339" lon="8.6110293"><ele>434.7</ele></trkpt>
      <trkpt lat="46.8933667" lon="8.6110747"><ele>434.7</ele></trkpt>
      <trkpt lat="46.8933181" lon="8.6111003"><ele>434.7</ele></trkpt>
      <trkpt lat="46.8932616" lon="8.6111300"><ele>434.7</ele></trkpt>
      <trkpt lat="46.8932263" lon="8.6111787"><ele>434.8</ele></trkpt>
      <trkpt lat="46.8931860" lon="8.6112250"><ele>434.8</ele></trkpt>
      <trkpt lat="46.8931447" lon="8.6112747"><ele>434.8</ele></trkpt>
      <trkpt lat="46.8931060" lon="8.6113320"><ele>434.9</ele></trkpt>
      <trkpt lat="46.8930705" lon="8.6113982"><ele>434.9</ele></trkpt>
      <trkpt lat="46.8930393" lon="8.6114655"><ele>434.9</ele></trkpt>
      <trkpt lat="46.8930115" lon="8.6115316"><ele>434.9</ele></trkpt>
      <trkpt lat="46.8929853" lon="8.6116004"><ele>434.9</ele></trkpt>
      <trkpt lat="46.8929583" lon="8.6116679"><ele>434.8</ele></trkpt>
      <trkpt lat="46.8929297" lon="8.6117341"><ele>434.6</ele></trkpt>
      <trkpt lat="46.8929010" lon="8.6118002"><ele>434.3</ele></trkpt>
      <trkpt lat="46.8928732" lon="8.6118652"><ele>434.3</ele></trkpt>
      <trkpt lat="46.8928437" lon="8.6119326"><ele>434.3</ele></trkpt>
      <trkpt lat="46.8928142" lon="8.6119964"><ele>434.7</ele></trkpt>
      <trkpt lat="46.8927838" lon="8.6120612"><ele>434.7</ele></trkpt>
      <trkpt lat="46.8927518" lon="8.6121274"><ele>434.8</ele></trkpt>
      <trkpt lat="46.8927214" lon="8.6121898"><ele>435.0</ele></trkpt>
      <trkpt lat="46.8926911" lon="8.6122510"><ele>435.1</ele></trkpt>
      <trkpt lat="46.8926574" lon="8.6123134"><ele>435.3</ele></trkpt>
      <trkpt lat="46.8926211" lon="8.6123744"><ele>435.3</ele></trkpt>
      <trkpt lat="46.8925858" lon="8.6124343"><ele>435.3</ele></trkpt>
      <trkpt lat="46.8925571" lon="8.6124980"><ele>435.3</ele></trkpt>
      <trkpt lat="46.8925352" lon="8.6125706"><ele>435.3</ele></trkpt>
      <trkpt lat="46.8925174" lon="8.6126468"><ele>435.2</ele></trkpt>
      <trkpt lat="46.8924972" lon="8.6127219"><ele>435.2</ele></trkpt>
      <trkpt lat="46.8924701" lon="8.6127919"><ele>435.2</ele></trkpt>
      <trkpt lat="46.8924365" lon="8.6128543"><ele>435.2</ele></trkpt>
      <trkpt lat="46.8923986" lon="8.6129091"><ele>435.3</ele></trkpt>
      <trkpt lat="46.8923573" lon="8.6129577"><ele>435.3</ele></trkpt>
      <trkpt lat="46.8923127" lon="8.6130050"><ele>435.3</ele></trkpt>
      <trkpt lat="46.8922673" lon="8.6130535"><ele>435.3</ele></trkpt>
      <trkpt lat="46.8922235" lon="8.6131045"><ele>435.3</ele></trkpt>
      <trkpt lat="46.8921831" lon="8.6131580"><ele>435.3</ele></trkpt>
      <trkpt lat="46.8921468" lon="8.6132191"><ele>435.3</ele></trkpt>
      <trkpt lat="46.8921164" lon="8.6132877"><ele>435.3</ele></trkpt>
      <trkpt lat="46.8920928" lon="8.6133651"><ele>435.3</ele></trkpt>
      <trkpt lat="46.8920741" lon="8.6134440"><ele>435.5</ele></trkpt>
      <trkpt lat="46.8920530" lon="8.6135190"><ele>435.5</ele></trkpt>
      <trkpt lat="46.8920243" lon="8.6135815"><ele>435.5</ele></trkpt>
      <trkpt lat="46.8919882" lon="8.6136327"><ele>435.5</ele></trkpt>
      <trkpt lat="46.8919462" lon="8.6136750"><ele>435.4</ele></trkpt>
      <trkpt lat="46.8918992" lon="8.6137112"><ele>435.4</ele></trkpt>
      <trkpt lat="46.8918497" lon="8.6137447"><ele>435.4</ele></trkpt>
      <trkpt lat="46.8917984" lon="8.6137769"><ele>435.4</ele></trkpt>
      <trkpt lat="46.8917498" lon="8.6138068"><ele>435.4</ele></trkpt>
      <trkpt lat="46.8916994" lon="8.6138354"><ele>435.4</ele></trkpt>
      <trkpt lat="46.8916483" lon="8.6138628"><ele>435.4</ele></trkpt>
      <trkpt lat="46.8915971" lon="8.6138876"><ele>435.4</ele></trkpt>
      <trkpt lat="46.8915494" lon="8.6139076"><ele>435.5</ele></trkpt>
      <trkpt lat="46.8914975" lon="8.6139226"><ele>435.8</ele></trkpt>
      <trkpt lat="46.8914413" lon="8.6139412"><ele>435.9</ele></trkpt>
      <trkpt lat="46.8913867" lon="8.6139721"><ele>435.9</ele></trkpt>
      <trkpt lat="46.8913379" lon="8.6140169"><ele>436.0</ele></trkpt>
      <trkpt lat="46.8912942" lon="8.6140617"><ele>436.0</ele></trkpt>
      <trkpt lat="46.8912506" lon="8.6140991"><ele>435.9</ele></trkpt>
      <trkpt lat="46.8912018" lon="8.6141338"><ele>435.9</ele></trkpt>
      <trkpt lat="46.8911540" lon="8.6141674"><ele>435.9</ele></trkpt>
      <trkpt lat="46.8911028" lon="8.6142010"><ele>435.9</ele></trkpt>
      <trkpt lat="46.8910550" lon="8.6142309"><ele>435.8</ele></trkpt>
      <trkpt lat="46.8910063" lon="8.6142608"><ele>435.8</ele></trkpt>
      <trkpt lat="46.8909559" lon="8.6142918"><ele>435.8</ele></trkpt>
      <trkpt lat="46.8909047" lon="8.6143217"><ele>435.8</ele></trkpt>
      <trkpt lat="46.8908544" lon="8.6143478"><ele>435.7</ele></trkpt>
      <trkpt lat="46.8908042" lon="8.6143640"><ele>435.7</ele></trkpt>
      <trkpt lat="46.8907542" lon="8.6143554"><ele>435.7</ele></trkpt>
      <trkpt lat="46.8907115" lon="8.6143088"><ele>435.7</ele></trkpt>
      <trkpt lat="46.8906842" lon="8.6142389"><ele>435.6</ele></trkpt>
      <trkpt lat="46.8906680" lon="8.6141643"><ele>435.6</ele></trkpt>
      <trkpt lat="46.8906535" lon="8.6140897"><ele>435.6</ele></trkpt>
      <trkpt lat="46.8906398" lon="8.6140164"><ele>435.6</ele></trkpt>
      <trkpt lat="46.8906253" lon="8.6139382"><ele>435.5</ele></trkpt>
      <trkpt lat="46.8906107" lon="8.6138759"><ele>435.5</ele></trkpt>
      <trkpt lat="46.8905936" lon="8.6137926"><ele>435.5</ele></trkpt>
      <trkpt lat="46.8905866" lon="8.6136913"><ele>435.4</ele></trkpt>
      <trkpt lat="46.8905775" lon="8.6135873"><ele>435.4</ele></trkpt>
      <trkpt lat="46.8905658" lon="8.6135092"><ele>435.4</ele></trkpt>
      <trkpt lat="46.8905527" lon="8.6134195"><ele>435.3</ele></trkpt>
      <trkpt lat="46.8905279" lon="8.6133483"><ele>435.3</ele></trkpt>
      <trkpt lat="46.8905074" lon="8.6132799"><ele>435.3</ele></trkpt>
      <trkpt lat="46.8904921" lon="8.6132052"><ele>435.3</ele></trkpt>
      <trkpt lat="46.8904751" lon="8.6131232"><ele>435.3</ele></trkpt>
      <trkpt lat="46.8904589" lon="8.6130474"><ele>435.3</ele></trkpt>
      <trkpt lat="46.8904427" lon="8.6129765"><ele>435.3</ele></trkpt>
      <trkpt lat="46.8904248" lon="8.6129018"><ele>435.3</ele></trkpt>
      <trkpt lat="46.8904069" lon="8.6128260"><ele>435.3</ele></trkpt>
      <trkpt lat="46.8903898" lon="8.6127563"><ele>435.3</ele></trkpt>
      <trkpt lat="46.8903727" lon="8.6126880"><ele>435.3</ele></trkpt>
      <trkpt lat="46.8903539" lon="8.6126145"><ele>435.3</ele></trkpt>
      <trkpt lat="46.8903344" lon="8.6125411"><ele>435.3</ele></trkpt>
      <trkpt lat="46.8903148" lon="8.6124689"><ele>435.3</ele></trkpt>
      <trkpt lat="46.8902951" lon="8.6123991"><ele>435.3</ele></trkpt>
      <trkpt lat="46.8902738" lon="8.6123257"><ele>435.2</ele></trkpt>
      <trkpt lat="46.8902533" lon="8.6122548"><ele>435.2</ele></trkpt>
      <trkpt lat="46.8902320" lon="8.6121812"><ele>435.2</ele></trkpt>
      <trkpt lat="46.8902107" lon="8.6121066"><ele>435.2</ele></trkpt>
      <trkpt lat="46.8901902" lon="8.6120356"><ele>435.2</ele></trkpt>
      <trkpt lat="46.8901689" lon="8.6119622"><ele>435.2</ele></trkpt>
      <trkpt lat="46.8901468" lon="8.6118899"><ele>435.1</ele></trkpt>
      <trkpt lat="46.8901255" lon="8.6118201"><ele>435.1</ele></trkpt>
      <trkpt lat="46.8901033" lon="8.6117479"><ele>435.1</ele></trkpt>
      <trkpt lat="46.8900819" lon="8.6116781"><ele>435.1</ele></trkpt>
      <trkpt lat="46.8900606" lon="8.6116072"><ele>435.1</ele></trkpt>
      <trkpt lat="46.8900393" lon="8.6115361"><ele>435.1</ele></trkpt>
      <trkpt lat="46.8900171" lon="8.6114639"><ele>435.1</ele></trkpt>
      <trkpt lat="46.8899958" lon="8.6113929"><ele>435.1</ele></trkpt>
      <trkpt lat="46.8899745" lon="8.6113220"><ele>435.1</ele></trkpt>
      <trkpt lat="46.8899532" lon="8.6112534"><ele>435.0</ele></trkpt>
      <trkpt lat="46.8899317" lon="8.6111825"><ele>435.0</ele></trkpt>
      <trkpt lat="46.8899088" lon="8.6111089"><ele>435.0</ele></trkpt>
      <trkpt lat="46.8898858" lon="8.6110342"><ele>435.0</ele></trkpt>
      <trkpt lat="46.8898644" lon="8.6109657"><ele>435.0</ele></trkpt>
      <trkpt lat="46.8898423" lon="8.6108959"><ele>435.0</ele></trkpt>
      <trkpt lat="46.8898201" lon="8.6108250"><ele>435.1</ele></trkpt>
      <trkpt lat="46.8897980" lon="8.6107539"><ele>435.1</ele></trkpt>
      <trkpt lat="46.8897757" lon="8.6106829"><ele>435.1</ele></trkpt>
      <trkpt lat="46.8897535" lon="8.6106107"><ele>435.1</ele></trkpt>
      <trkpt lat="46.8897322" lon="8.6105409"><ele>435.1</ele></trkpt>
      <trkpt lat="46.8897101" lon="8.6104698"><ele>435.1</ele></trkpt>
      <trkpt lat="46.8896871" lon="8.6104000"><ele>435.0</ele></trkpt>
      <trkpt lat="46.8896641" lon="8.6103266"><ele>435.0</ele></trkpt>
      <trkpt lat="46.8896418" lon="8.6102556"><ele>435.0</ele></trkpt>
      <trkpt lat="46.8896197" lon="8.6101845"><ele>435.0</ele></trkpt>
      <trkpt lat="46.8895967" lon="8.6101111"><ele>435.0</ele></trkpt>
      <trkpt lat="46.8895745" lon="8.6100413"><ele>435.0</ele></trkpt>
      <trkpt lat="46.8895523" lon="8.6099704"><ele>435.1</ele></trkpt>
      <trkpt lat="46.8895302" lon="8.6098993"><ele>435.0</ele></trkpt>
      <trkpt lat="46.8895079" lon="8.6098295"><ele>435.0</ele></trkpt>
      <trkpt lat="46.8894858" lon="8.6097586"><ele>435.1</ele></trkpt>
      <trkpt lat="46.8894636" lon="8.6096875"><ele>435.1</ele></trkpt>
      <trkpt lat="46.8894406" lon="8.6096140"><ele>435.1</ele></trkpt>
      <trkpt lat="46.8894185" lon="8.6095431"><ele>435.1</ele></trkpt>
      <trkpt lat="46.8893963" lon="8.6094720"><ele>435.1</ele></trkpt>
      <trkpt lat="46.8893740" lon="8.6094010"><ele>435.1</ele></trkpt>
      <trkpt lat="46.8893519" lon="8.6093288"><ele>434.3</ele></trkpt>
      <trkpt lat="46.8893297" lon="8.6092577"><ele>434.2</ele></trkpt>
      <trkpt lat="46.8893084" lon="8.6091904"><ele>434.2</ele></trkpt>
      <trkpt lat="46.8892853" lon="8.6091195"><ele>434.2</ele></trkpt>
      <trkpt lat="46.8892623" lon="8.6090460"><ele>434.9</ele></trkpt>
      <trkpt lat="46.8892402" lon="8.6089749"><ele>435.2</ele></trkpt>
      <trkpt lat="46.8892188" lon="8.6089065"><ele>435.2</ele></trkpt>
      <trkpt lat="46.8891967" lon="8.6088354"><ele>435.2</ele></trkpt>
      <trkpt lat="46.8891744" lon="8.6087644"><ele>435.2</ele></trkpt>
      <trkpt lat="46.8891523" lon="8.6086934"><ele>435.2</ele></trkpt>
      <trkpt lat="46.8891301" lon="8.6086211"><ele>435.2</ele></trkpt>
      <trkpt lat="46.8891080" lon="8.6085502"><ele>435.2</ele></trkpt>
      <trkpt lat="46.8890858" lon="8.6084779"><ele>435.2</ele></trkpt>
      <trkpt lat="46.8890636" lon="8.6084069"><ele>435.2</ele></trkpt>
      <trkpt lat="46.8890415" lon="8.6083347"><ele>435.2</ele></trkpt>
      <trkpt lat="46.8890192" lon="8.6082636"><ele>435.2</ele></trkpt>
      <trkpt lat="46.8889979" lon="8.6081952"><ele>435.1</ele></trkpt>
      <trkpt lat="46.8889749" lon="8.6081217"><ele>435.0</ele></trkpt>
      <trkpt lat="46.8889528" lon="8.6080494"><ele>435.0</ele></trkpt>
      <trkpt lat="46.8889306" lon="8.6079784"><ele>435.0</ele></trkpt>
      <trkpt lat="46.8889093" lon="8.6079086"><ele>435.0</ele></trkpt>
      <trkpt lat="46.8888879" lon="8.6078402"><ele>434.9</ele></trkpt>
      <trkpt lat="46.8888657" lon="8.6077679"><ele>434.9</ele></trkpt>
      <trkpt lat="46.8888436" lon="8.6076968"><ele>434.9</ele></trkpt>
      <trkpt lat="46.8888214" lon="8.6076234"><ele>434.9</ele></trkpt>
      <trkpt lat="46.8887992" lon="8.6075524"><ele>435.0</ele></trkpt>
      <trkpt lat="46.8887778" lon="8.6074839"><ele>435.0</ele></trkpt>
      <trkpt lat="46.8887557" lon="8.6074129"><ele>434.9</ele></trkpt>
      <trkpt lat="46.8887335" lon="8.6073407"><ele>434.9</ele></trkpt>
      <trkpt lat="46.8887146" lon="8.6072783"><ele>434.9</ele></trkpt>
      <trkpt lat="46.8886872" lon="8.6072187"><ele>434.9</ele></trkpt>
      <trkpt lat="46.8886620" lon="8.6071289"><ele>434.9</ele></trkpt>
      <trkpt lat="46.8886425" lon="8.6070520"><ele>434.9</ele></trkpt>
      <trkpt lat="46.8886080" lon="8.6069580"><ele>434.9</ele></trkpt>
      <trkpt lat="46.8885819" lon="8.6068972"><ele>434.9</ele></trkpt>
      <trkpt lat="46.8885548" lon="8.6068183"><ele>434.9</ele></trkpt>
      <trkpt lat="46.8885488" lon="8.6067402"><ele>434.9</ele></trkpt>
      <trkpt lat="46.8885291" lon="8.6066730"><ele>435.2</ele></trkpt>
      <trkpt lat="46.8885078" lon="8.6066021"><ele>435.2</ele></trkpt>
      <trkpt lat="46.8884857" lon="8.6065298"><ele>435.2</ele></trkpt>
      <trkpt lat="46.8884643" lon="8.6064588"><ele>435.2</ele></trkpt>
      <trkpt lat="46.8884429" lon="8.6063878"><ele>435.1</ele></trkpt>
      <trkpt lat="46.8884216" lon="8.6063193"><ele>435.1</ele></trkpt>
      <trkpt lat="46.8883995" lon="8.6062458"><ele>435.1</ele></trkpt>
      <trkpt lat="46.8883782" lon="8.6061724"><ele>435.0</ele></trkpt>
      <trkpt lat="46.8883568" lon="8.6061013"><ele>435.1</ele></trkpt>
      <trkpt lat="46.8883355" lon="8.6060292"><ele>435.1</ele></trkpt>
      <trkpt lat="46.8883134" lon="8.6059520"><ele>435.1</ele></trkpt>
      <trkpt lat="46.8882929" lon="8.6058786"><ele>435.1</ele></trkpt>
      <trkpt lat="46.8882733" lon="8.6058101"><ele>435.1</ele></trkpt>
      <trkpt lat="46.8882520" lon="8.6057353"><ele>435.1</ele></trkpt>
      <trkpt lat="46.8882315" lon="8.6056632"><ele>435.1</ele></trkpt>
      <trkpt lat="46.8882120" lon="8.6055897"><ele>435.0</ele></trkpt>
      <trkpt lat="46.8881923" lon="8.6055175"><ele>435.0</ele></trkpt>
      <trkpt lat="46.8881719" lon="8.6054441"><ele>435.0</ele></trkpt>
      <trkpt lat="46.8881522" lon="8.6053719"><ele>435.0</ele></trkpt>
      <trkpt lat="46.8881326" lon="8.6052973"><ele>435.0</ele></trkpt>
      <trkpt lat="46.8881147" lon="8.6052277"><ele>435.0</ele></trkpt>
      <trkpt lat="46.8880951" lon="8.6051517"><ele>435.0</ele></trkpt>
      <trkpt lat="46.8880755" lon="8.6050758"><ele>435.0</ele></trkpt>
      <trkpt lat="46.8880576" lon="8.6050036"><ele>434.9</ele></trkpt>
      <trkpt lat="46.8880389" lon="8.6049266"><ele>434.9</ele></trkpt>
      <trkpt lat="46.8880218" lon="8.6048494"><ele>434.9</ele></trkpt>
      <trkpt lat="46.8880065" lon="8.6047725"><ele>434.9</ele></trkpt>
      <trkpt lat="46.8879928" lon="8.6046954"><ele>434.9</ele></trkpt>
      <trkpt lat="46.8879834" lon="8.6046198"><ele>434.9</ele></trkpt>
      <trkpt lat="46.8879800" lon="8.6045417"><ele>434.9</ele></trkpt>
      <trkpt lat="46.8879860" lon="8.6044589"><ele>434.9</ele></trkpt>
      <trkpt lat="46.8879995" lon="8.6043788"><ele>434.8</ele></trkpt>
      <trkpt lat="46.8880181" lon="8.6043001"><ele>434.3</ele></trkpt>
      <trkpt lat="46.8880341" lon="8.6042250"><ele>434.3</ele></trkpt>
      <trkpt lat="46.8880476" lon="8.6041498"><ele>434.3</ele></trkpt>
      <trkpt lat="46.8880628" lon="8.6040709"><ele>434.3</ele></trkpt>
      <trkpt lat="46.8880806" lon="8.6039946"><ele>435.0</ele></trkpt>
      <trkpt lat="46.8881008" lon="8.6039245"><ele>435.0</ele></trkpt>
      <trkpt lat="46.8881244" lon="8.6038545"><ele>435.0</ele></trkpt>
      <trkpt lat="46.8881473" lon="8.6037807"><ele>434.9</ele></trkpt>
      <trkpt lat="46.8881641" lon="8.6037081"><ele>434.8</ele></trkpt>
      <trkpt lat="46.8881767" lon="8.6036341"><ele>434.8</ele></trkpt>
      <trkpt lat="46.8881868" lon="8.6035589"><ele>434.8</ele></trkpt>
      <trkpt lat="46.8882003" lon="8.6034788"><ele>434.9</ele></trkpt>
      <trkpt lat="46.8882232" lon="8.6033988"><ele>434.9</ele></trkpt>
      <trkpt lat="46.8882492" lon="8.6033412"><ele>434.9</ele></trkpt>
      <trkpt lat="46.8883014" lon="8.6033016"><ele>434.9</ele></trkpt>
      <trkpt lat="46.8883014" lon="8.6033016"><ele>434.9</ele></trkpt>
    </trkseg>
  </trk>
</gpx>
