<?xml version="1.0" encoding="UTF-8"?>
<gpx version="1.1" creator="Urner Abendläufe" xmlns="http://www.topografix.com/GPX/1/1">
  <metadata>
    <name>Kleine Runde – Urner Abendläufe</name>
    <desc>Verlauf nach der Streckenkarte, Höhen aus swissALTI3D (swisstopo). Unterführungen der A2 ebenerdig, Abschnitte entlang des Autobahndamms auf Höhe des Dammfusses.</desc>
  </metadata>
  <trk>
    <name>Kleine Runde</name>
    <trkseg>
      <trkpt lat="46.8881177" lon="8.6032236"><ele>435.4</ele></trkpt>
      <trkpt lat="46.8881242" lon="8.6032624"><ele>435.4</ele></trkpt>
      <trkpt lat="46.8881014" lon="8.6033316"><ele>435.8</ele></trkpt>
      <trkpt lat="46.8880877" lon="8.6034051"><ele>436.4</ele></trkpt>
      <trkpt lat="46.8880788" lon="8.6034715"><ele>436.3</ele></trkpt>
      <trkpt lat="46.8880716" lon="8.6035434"><ele>436.3</ele></trkpt>
      <trkpt lat="46.8880627" lon="8.6036159"><ele>436.2</ele></trkpt>
      <trkpt lat="46.8880473" lon="8.6036887"><ele>436.1</ele></trkpt>
      <trkpt lat="46.8880277" lon="8.6037579"><ele>436.1</ele></trkpt>
      <trkpt lat="46.8880038" lon="8.6038259"><ele>436.0</ele></trkpt>
      <trkpt lat="46.8879766" lon="8.6038902"><ele>435.9</ele></trkpt>
      <trkpt lat="46.8879482" lon="8.6039496"><ele>435.9</ele></trkpt>
      <trkpt lat="46.8879162" lon="8.6040102"><ele>435.8</ele></trkpt>
      <trkpt lat="46.8878850" lon="8.6040721"><ele>435.7</ele></trkpt>
      <trkpt lat="46.8878546" lon="8.6041370"><ele>435.6</ele></trkpt>
      <trkpt lat="46.8878315" lon="8.6041935"><ele>435.6</ele></trkpt>
      <trkpt lat="46.8878116" lon="8.6042663"><ele>435.5</ele></trkpt>
      <trkpt lat="46.8878093" lon="8.6043371"><ele>435.4</ele></trkpt>
      <trkpt lat="46.8878208" lon="8.6044100"><ele>435.4</ele></trkpt>
      <trkpt lat="46.8878331" lon="8.6044828"><ele>435.3</ele></trkpt>
      <trkpt lat="46.8878471" lon="8.6045546"><ele>435.2</ele></trkpt>
      <trkpt lat="46.8878603" lon="8.6046185"><ele>435.2</ele></trkpt>
      <trkpt lat="46.8878743" lon="8.6046850"><ele>435.1</ele></trkpt>
      <trkpt lat="46.8878883" lon="8.6047477"><ele>435.0</ele></trkpt>
      <trkpt lat="46.8879048" lon="8.6048183"><ele>435.0</ele></trkpt>
      <trkpt lat="46.8879216" lon="8.6048900"><ele>434.9</ele></trkpt>
      <trkpt lat="46.8879368" lon="8.6049541"><ele>434.9</ele></trkpt>
      <trkpt lat="46.8879537" lon="8.6050241"><ele>434.9</ele></trkpt>
      <trkpt lat="46.8879705" lon="8.6050923"><ele>434.9</ele></trkpt>
      <trkpt lat="46.8879858" lon="8.6051540"><ele>435.0</ele></trkpt>
      <trkpt lat="46.8880038" lon="8.6052251"><ele>435.0</ele></trkpt>
      <trkpt lat="46.8880223" lon="8.6052976"><ele>435.0</ele></trkpt>
      <trkpt lat="46.8880403" lon="8.6053658"><ele>435.0</ele></trkpt>
      <trkpt lat="46.8880588" lon="8.6054371"><ele>435.0</ele></trkpt>
      <trkpt lat="46.8880781" lon="8.6055095"><ele>435.1</ele></trkpt>
      <trkpt lat="46.8880974" lon="8.6055790"><ele>435.1</ele></trkpt>
      <trkpt lat="46.8881166" lon="8.6056477"><ele>435.1</ele></trkpt>
      <trkpt lat="46.8881319" lon="8.6057100"><ele>435.1</ele></trkpt>
      <trkpt lat="46.8881487" lon="8.6057824"><ele>435.0</ele></trkpt>
      <trkpt lat="46.8881631" lon="8.6058577"><ele>434.7</ele></trkpt>
      <trkpt lat="46.8881692" lon="8.6059322"><ele>434.7</ele></trkpt>
      <trkpt lat="46.8881651" lon="8.6060068"><ele>434.7</ele></trkpt>
      <trkpt lat="46.8881656" lon="8.6060740"><ele>434.7</ele></trkpt>
      <trkpt lat="46.8881651" lon="8.6061415"><ele>434.7</ele></trkpt>
      <trkpt lat="46.8881663" lon="8.6062168"><ele>434.7</ele></trkpt>
      <trkpt lat="46.8881680" lon="8.6062905"><ele>434.7</ele></trkpt>
      <trkpt lat="46.8881778" lon="8.6063670"><ele>434.7</ele></trkpt>
      <trkpt lat="46.8881934" lon="8.6064423"><ele>434.6</ele></trkpt>
      <trkpt lat="46.8882103" lon="8.6065135"><ele>434.4</ele></trkpt>
      <trkpt lat="46.8882295" lon="8.6065865"><ele>434.4</ele></trkpt>
      <trkpt lat="46.8882504" lon="8.6066578"><ele>434.4</ele></trkpt>
      <trkpt lat="46.8882733" lon="8.6067266"><ele>434.4</ele></trkpt>
      <trkpt lat="46.8882971" lon="8.6067968"><ele>434.4</ele></trkpt>
      <trkpt lat="46.8883193" lon="8.6068551"><ele>434.4</ele></trkpt>
      <trkpt lat="46.8883326" lon="8.6069208"><ele>434.4</ele></trkpt>
      <trkpt lat="46.8883245" lon="8.6069957"><ele>434.4</ele></trkpt>
      <trkpt lat="46.8883132" lon="8.6070596"><ele>434.4</ele></trkpt>
      <trkpt lat="46.8882925" lon="8.6071289"><ele>434.6</ele></trkpt>
      <trkpt lat="46.8882701" lon="8.6071986"><ele>434.6</ele></trkpt>
      <trkpt lat="46.8882466" lon="8.6072612"><ele>434.7</ele></trkpt>
      <trkpt lat="46.8882186" lon="8.6073254"><ele>434.8</ele></trkpt>
      <trkpt lat="46.8881911" lon="8.6073879"><ele>434.8</ele></trkpt>
      <trkpt lat="46.8881635" lon="8.6074511"><ele>434.9</ele></trkpt>
      <trkpt lat="46.8881340" lon="8.6075099"><ele>434.9</ele></trkpt>
      <trkpt lat="46.8881031" lon="8.6075705"><ele>434.9</ele></trkpt>
      <trkpt lat="46.8880727" lon="8.6076313"><ele>434.8</ele></trkpt>
      <trkpt lat="46.8880419" lon="8.6076924"><ele>434.9</ele></trkpt>
      <trkpt lat="46.8880119" lon="8.6077518"><ele>434.9</ele></trkpt>
      <trkpt lat="46.8879865" lon="8.6078061"><ele>435.0</ele></trkpt>
      <trkpt lat="46.8879573" lon="8.6078691"><ele>435.0</ele></trkpt>
      <trkpt lat="46.8879322" lon="8.6079240"><ele>435.0</ele></trkpt>
      <trkpt lat="46.8879047" lon="8.6079840"><ele>435.1</ele></trkpt>
      <trkpt lat="46.8878771" lon="8.6080489"><ele>435.0</ele></trkpt>
      <trkpt lat="46.8878512" lon="8.6081156"><ele>435.1</ele></trkpt>
      <trkpt lat="46.8878247" lon="8.6081829"><ele>435.1</ele></trkpt>
      <trkpt lat="46.8878036" lon="8.6082479"><ele>435.1</ele></trkpt>
      <trkpt lat="46.8877866" lon="8.6083196"><ele>435.1</ele></trkpt>
      <trkpt lat="46.8877793" lon="8.6083950"><ele>435.3</ele></trkpt>
      <trkpt lat="46.8877785" lon="8.6084699"><ele>435.4</ele></trkpt>
      <trkpt lat="46.8877725" lon="8.6085449"><ele>435.5</ele></trkpt>
      <trkpt lat="46.8877578" lon="8.6086183"><ele>435.6</ele></trkpt>
      <trkpt lat="46.8877327" lon="8.6086868"><ele>435.6</ele></trkpt>
      <trkpt lat="46.8877031" lon="8.6087427"><ele>435.6</ele></trkpt>
      <trkpt lat="46.8876598" lon="8.6087804"><ele>435.4</ele></trkpt>
      <trkpt lat="46.8876122" lon="8.6088080"><ele>435.3</ele></trkpt>
      <trkpt lat="46.8875688" lon="8.6088279"><ele>435.2</ele></trkpt>
      <trkpt lat="46.8875173" lon="8.6088398"><ele>435.2</ele></trkpt>
      <trkpt lat="46.8874693" lon="8.6088251"><ele>435.2</ele></trkpt>
      <trkpt lat="46.8874285" lon="8.6087850"><ele>435.5</ele></trkpt>
      <trkpt lat="46.8873980" lon="8.6087278"><ele>435.7</ele></trkpt>
      <trkpt lat="46.8873652" lon="8.6086687"><ele>435.7</ele></trkpt>
      <trkpt lat="46.8873355" lon="8.6086192"><ele>435.7</ele></trkpt>
      <trkpt lat="46.8872993" lon="8.6085637"><ele>435.8</ele></trkpt>
      <trkpt lat="46.8872627" lon="8.6085111"><ele>435.8</ele></trkpt>
      <trkpt lat="46.8872285" lon="8.6084665"><ele>435.8</ele></trkpt>
      <trkpt lat="46.8871743" lon="8.6084354"><ele>435.8</ele></trkpt>
      <trkpt lat="46.8871363" lon="8.6083906"><ele>435.8</ele></trkpt>
      <trkpt lat="46.8871053" lon="8.6083422"><ele>435.8</ele></trkpt>
      <trkpt lat="46.8870670" lon="8.6083045"><ele>435.9</ele></trkpt>
      <trkpt lat="46.8870179" lon="8.6082785"><ele>435.9</ele></trkpt>
      <trkpt lat="46.8869657" lon="8.6082642"><ele>436.0</ele></trkpt>
      <trkpt lat="46.8869152" lon="8.6082636"><ele>436.0</ele></trkpt>
      <trkpt lat="46.8868614" lon="8.6082589"><ele>436.0</ele></trkpt>
      <trkpt lat="46.8868092" lon="8.6082507"><ele>436.0</ele></trkpt>
      <trkpt lat="46.8867588" lon="8.6082347"><ele>435.8</ele></trkpt>
      <trkpt lat="46.8867093" lon="8.6082110"><ele>435.8</ele></trkpt>
      <trkpt lat="46.8866606" lon="8.6081802"><ele>435.8</ele></trkpt>
      <trkpt lat="46.8866157" lon="8.6081411"><ele>435.9</ele></trkpt>
      <trkpt lat="46.8865750" lon="8.6080933"><ele>435.9</ele></trkpt>
      <trkpt lat="46.8865407" lon="8.6080454"><ele>435.9</ele></trkpt>
      <trkpt lat="46.8865047" lon="8.6079852"><ele>435.9</ele></trkpt>
      <trkpt lat="46.8864717" lon="8.6079392"><ele>435.9</ele></trkpt>
      <trkpt lat="46.8864337" lon="8.6078997"><ele>435.9</ele></trkpt>
      <trkpt lat="46.8863860" lon="8.6078660"><ele>435.9</ele></trkpt>
      <trkpt lat="46.8863435" lon="8.6078221"><ele>436.1</ele></trkpt>
      <trkpt lat="46.8863126" lon="8.6077686"><ele>436.2</ele></trkpt>
      <trkpt lat="46.8862901" lon="8.6077043"><ele>436.3</ele></trkpt>
      <trkpt lat="46.8862731" lon="8.6076361"><ele>436.4</ele></trkpt>
      <trkpt lat="46.8862608" lon="8.6075727"><ele>436.4</ele></trkpt>
      <trkpt lat="46.8862481" lon="8.6074963"><ele>436.5</ele></trkpt>
      <trkpt lat="46.8862349" lon="8.6074252"><ele>436.7</ele></trkpt>
      <trkpt lat="46.8862177" lon="8.6073563"><ele>436.8</ele></trkpt>
      <trkpt lat="46.8861886" lon="8.6072921"><ele>437.0</ele></trkpt>
      <trkpt lat="46.8861507" lon="8.6072454"><ele>437.1</ele></trkpt>
      <trkpt lat="46.8861074" lon="8.6072130"><ele>437.3</ele></trkpt>
      <trkpt lat="46.8860570" lon="8.6071946"><ele>437.4</ele></trkpt>
      <trkpt lat="46.8860077" lon="8.6071828"><ele>437.5</ele></trkpt>
      <trkpt lat="46.8859622" lon="8.6071675"><ele>437.5</ele></trkpt>
      <trkpt lat="46.8859130" lon="8.6071408"><ele>437.6</ele></trkpt>
      <trkpt lat="46.8858751" lon="8.6071026"><ele>437.6</ele></trkpt>
      <trkpt lat="46.8858417" lon="8.6070489"><ele>438.2</ele></trkpt>
      <trkpt lat="46.8858184" lon="8.6069852"><ele>438.2</ele></trkpt>
      <trkpt lat="46.8858097" lon="8.6069095"><ele>438.2</ele></trkpt>
      <trkpt lat="46.8858276" lon="8.6068439"><ele>437.7</ele></trkpt>
      <trkpt lat="46.8858562" lon="8.6067921"><ele>437.6</ele></trkpt>
      <trkpt lat="46.8858947" lon="8.6067418"><ele>437.5</ele></trkpt>
      <trkpt lat="46.8859335" lon="8.6066926"><ele>437.3</ele></trkpt>
      <trkpt lat="46.8859732" lon="8.6066405"><ele>437.3</ele></trkpt>
      <trkpt lat="46.8860097" lon="8.6065847"><ele>437.2</ele></trkpt>
      <trkpt lat="46.8860442" lon="8.6065266"><ele>437.2</ele></trkpt>
      <trkpt lat="46.8860855" lon="8.6064775"><ele>437.0</ele></trkpt>
      <trkpt lat="46.8861270" lon="8.6064521"><ele>436.8</ele></trkpt>
      <trkpt lat="46.8861758" lon="8.6064222"><ele>436.6</ele></trkpt>
      <trkpt lat="46.8862094" lon="8.6063701"><ele>436.6</ele></trkpt>
      <trkpt lat="46.8862296" lon="8.6063104"><ele>436.4</ele></trkpt>
      <trkpt lat="46.8862458" lon="8.6062404"><ele>436.0</ele></trkpt>
      <trkpt lat="46.8862519" lon="8.6061656"><ele>436.0</ele></trkpt>
      <trkpt lat="46.8862489" lon="8.6060982"><ele>436.0</ele></trkpt>
      <trkpt lat="46.8862366" lon="8.6060261"><ele>436.0</ele></trkpt>
      <trkpt lat="46.8862282" lon="8.6059636"><ele>436.0</ele></trkpt>
      <trkpt lat="46.8862517" lon="8.6059033"><ele>436.1</ele></trkpt>
      <trkpt lat="46.8862806" lon="8.6058336"><ele>436.0</ele></trkpt>
      <trkpt lat="46.8863004" lon="8.6057721"><ele>435.9</ele></trkpt>
      <trkpt lat="46.8863307" lon="8.6057132"><ele>435.8</ele></trkpt>
      <trkpt lat="46.8863684" lon="8.6056605"><ele>435.7</ele></trkpt>
      <trkpt lat="46.8864109" lon="8.6056168"><ele>435.7</ele></trkpt>
      <trkpt lat="46.8864574" lon="8.6055862"><ele>435.7</ele></trkpt>
      <trkpt lat="46.8864999" lon="8.6055640"><ele>436.1</ele></trkpt>
      <trkpt lat="46.8865496" lon="8.6055424"><ele>436.2</ele></trkpt>
      <trkpt lat="46.8866016" lon="8.6055215"><ele>436.2</ele></trkpt>
      <trkpt lat="46.8866503" lon="8.6055047"><ele>436.1</ele></trkpt>
      <trkpt lat="46.8867028" lon="8.6054874"><ele>436.0</ele></trkpt>
      <trkpt lat="46.8867543" lon="8.6054742"><ele>435.9</ele></trkpt>
      <trkpt lat="46.8867993" lon="8.6054645"><ele>435.5</ele></trkpt>
      <trkpt lat="46.8868447" lon="8.6054572"><ele>435.1</ele></trkpt>
      <trkpt lat="46.8868981" lon="8.6054560"><ele>435.0</ele></trkpt>
      <trkpt lat="46.8869494" lon="8.6054642"><ele>434.9</ele></trkpt>
      <trkpt lat="46.8869995" lon="8.6054813"><ele>434.6</ele></trkpt>
      <trkpt lat="46.8870434" lon="8.6054977"><ele>434.6</ele></trkpt>
      <trkpt lat="46.8870890" lon="8.6055053"><ele>434.5</ele></trkpt>
      <trkpt lat="46.8871417" lon="8.6054993"><ele>434.5</ele></trkpt>
      <trkpt lat="46.8871929" lon="8.6054765"><ele>434.4</ele></trkpt>
      <trkpt lat="46.8872341" lon="8.6054483"><ele>434.4</ele></trkpt>
      <trkpt lat="46.8872805" lon="8.6054130"><ele>434.4</ele></trkpt>
      <trkpt lat="46.8873274" lon="8.6053759"><ele>434.4</ele></trkpt>
      <trkpt lat="46.8873698" lon="8.6053316"><ele>434.4</ele></trkpt>
      <trkpt lat="46.8874055" lon="8.6052765"><ele>434.3</ele></trkpt>
      <trkpt lat="46.8874387" lon="8.6052189"><ele>434.3</ele></trkpt>
      <trkpt lat="46.8874688" lon="8.6051582"><ele>434.3</ele></trkpt>
      <trkpt lat="46.8874975" lon="8.6050975"><ele>434.3</ele></trkpt>
      <trkpt lat="46.8875255" lon="8.6050356"><ele>434.3</ele></trkpt>
      <trkpt lat="46.8875507" lon="8.6049689"><ele>434.3</ele></trkpt>
      <trkpt lat="46.8875734" lon="8.6049003"><ele>434.3</ele></trkpt>
      <trkpt lat="46.8875891" lon="8.6048382"><ele>434.3</ele></trkpt>
      <trkpt lat="46.8876025" lon="8.6047653"><ele>434.3</ele></trkpt>
      <trkpt lat="46.8876098" lon="8.6046875"><ele>434.3</ele></trkpt>
      <trkpt lat="46.8876195" lon="8.6046217"><ele>434.3</ele></trkpt>
      <trkpt lat="46.8876418" lon="8.6045525"><ele>434.2</ele></trkpt>
      <trkpt lat="46.8876742" lon="8.6044967"><ele>434.2</ele></trkpt>
      <trkpt lat="46.8877138" lon="8.6044487"><ele>434.2</ele></trkpt>
      <trkpt lat="46.8877494" lon="8.6044060"><ele>434.2</ele></trkpt>
      <trkpt lat="46.8877817" lon="8.6043586"><ele>434.8</ele></trkpt>
      <trkpt lat="46.8878051" lon="8.6043025"><ele>434.9</ele></trkpt>
      <trkpt lat="46.8878197" lon="8.6042308"><ele>435.0</ele></trkpt>
      <trkpt lat="46.8878404" lon="8.6041705"><ele>435.0</ele></trkpt>
      <trkpt lat="46.8878696" lon="8.6041040"><ele>435.1</ele></trkpt>
      <trkpt lat="46.8879008" lon="8.6040403"><ele>435.2</ele></trkpt>
      <trkpt lat="46.8879325" lon="8.6039797"><ele>435.3</ele></trkpt>
      <trkpt lat="46.8879625" lon="8.6039203"><ele>435.4</ele></trkpt>
      <trkpt lat="46.8879904" lon="8.6038583"><ele>435.5</ele></trkpt>
      <trkpt lat="46.8880160" lon="8.6037922"><ele>435.6</ele></trkpt>
      <trkpt lat="46.8880379" lon="8.6037236"><ele>435.7</ele></trkpt>
      <trkpt lat="46.8880557" lon="8.6036532"><ele>435.8</ele></trkpt>
      <trkpt lat="46.8880675" lon="8.6035802"><ele>435.9</ele></trkpt>
      <trkpt lat="46.8880747" lon="8.6035096"><ele>435.9</ele></trkpt>
      <trkpt lat="46.8880824" lon="8.6034448"><ele>436.0</ele></trkpt>
      <trkpt lat="46.8880920" lon="8.6033790"><ele>436.1</ele></trkpt>
      <trkpt lat="46.8881075" lon="8.6033068"><ele>435.7</ele></trkpt>
      <trkpt lat="46.8881317" lon="8.6032483"><ele>435.4</ele></trkpt>
      <trkpt lat="46.8881177" lon="8.6032236"><ele>435.4</ele></trkpt>
    </trkseg>
  </trk>
</gpx>
